NORAD_CAT_ID,OBJECT_NAME,OBJECT_TYPE,EPOCH,MEAN_MOTION,ECCENTRICITY,INCLINATION,RA_OF_ASC_NODE,ARG_OF_PERICENTER,MEAN_ANOMALY,BSTAR,MEAN_MOTION_DOT,MEAN_MOTION_DDOT,TLE_LINE0,TLE_LINE1,TLE_LINE2,SEMIMAJOR_AXIS,PERIOD,APOGEE,PERIGEE,DECAYED
55952.0,STARLINK-5893,PAYLOAD,2023-10-22 10:27:18,14.99200164,0.0002114,70.0013,296.2993,240.8825,119.2124,-0.0018203,-0.00022237,0.0,0 STARLINK-5893,1 55952U 23037AQ  23295.43563638 -.00022237  00000-0 -18203-2 0  9994,2 55952  70.0013 296.2993 0002114 240.8825 119.2124 14.99200164 34605,6947.503,96.051,570.837,567.9,0.0
55952.0,STARLINK-5893,PAYLOAD,2023-10-22 16:51:31,14.99238715,0.0001493,70.0015,295.6242,284.6358,75.4636,-0.00018109,-2.305e-05,0.0,0 STARLINK-5893,1 55952U 23037AQ  23295.70244811 -.00002305  00000-0 -18109-3 0  9993,2 55952  70.0015 295.6242 0001493 284.6358  75.4636 14.99238715 34641,6947.384,96.049,570.286,568.212,0.0
55952.0,STARLINK-5893,PAYLOAD,2023-10-23 04:03:58,14.99292807,0.0002426,70.0,294.4443,253.9471,106.1422,5.6236e-06,-2.5e-07,0.0,0 STARLINK-5893,1 55952U 23037AQ  23296.16942205 -.00000025  00000-0  56236-5 0  9997,2 55952  70.0000 294.4443 0002426 253.9471 106.1422 14.99292807 34712,6947.217,96.045,570.767,567.397,0.0
55952.0,STARLINK-5893,PAYLOAD,2023-10-23 08:52:11,14.99288557,0.000232,70.0012,293.9396,283.6742,76.4159,7.527e-08,-9.3e-07,0.0,0 STARLINK-5893,1 55952U 23037AQ  23296.36957866 -.00000093  00000-0  75270-7 0  9994,2 55952  70.0012 293.9396 0002320 283.6742  76.4159 14.99288557 34746,6947.23,96.046,570.707,567.483,0.0
55952.0,STARLINK-5893,PAYLOAD,2023-10-23 16:52:31,14.9935391,0.0002251,70.0013,293.0966,280.6605,79.4301,-0.00069353,-8.581e-05,0.0,0 STARLINK-5893,1 55952U 23037AQ  23296.70313730 -.00008581  00000-0 -69353-3 0  9990,2 55952  70.0013 293.0966 0002251 280.6605  79.4301 14.99353910 34792,6947.028,96.041,570.457,567.33,0.0
55952.0,STARLINK-5893,PAYLOAD,2023-10-24 05:41:05,14.99315936,0.0002015,70.0009,291.7478,261.0345,99.0587,0.00029816,3.558e-05,0.0,0 STARLINK-5893,1 55952U 23037AQ  23297.23686959  .00003558  00000-0  29816-3 0  9992,2 55952  70.0009 291.7478 0002015 261.0345  99.0587 14.99315936 34871,6947.146,96.044,570.41,567.611,0.0
55952.0,STARLINK-5893,PAYLOAD,2023-10-24 10:29:28,14.9919144,0.0001885,69.9997,291.2419,277.4989,82.5956,-0.0010738,-0.0001317,0.0,0 STARLINK-5893,1 55952U 23037AQ  23297.43713512 -.00013170  00000-0 -10738-2 0  9995,2 55952  69.9997 291.2419 0001885 277.4989  82.5956 14.99191440 34906,6947.53,96.052,570.705,568.086,0.0
55952.0,STARLINK-5893,PAYLOAD,2023-10-25 21:44:16,14.98679206,0.0003088,69.9984,287.5423,267.2459,92.8347,-0.0050515,-0.00060394,0.0,0 STARLINK-5893,1 55952U 23037AQ  23298.90574517 -.00060394  00000-0 -50515-2 0  9995,2 55952  69.9984 287.5423 0003088 267.2459  92.8347 14.98679206 35124,6949.113,96.085,573.124,568.832,0.0
55952.0,STARLINK-5893,PAYLOAD,2023-10-26 04:08:44,14.98655566,0.0003242,69.9985,286.8688,268.2405,91.8382,-0.0048437,-0.000579,0.0,0 STARLINK-5893,1 55952U 23037AQ  23299.17273455 -.00057900  00000-0 -48437-2 0  9991,2 55952  69.9985 286.8688 0003242 268.2405  91.8382 14.98655566 35169,6949.186,96.086,573.304,568.798,0.0
55952.0,STARLINK-5893,PAYLOAD,2023-10-26 14:00:01,14.98343264,0.0003077,69.9996,285.833,271.7657,142.7377,-0.0037834,-0.00044963,0.0,0 STARLINK-5893,1 55952U 23037AQ  23299.58334491 -.00044963  00000-0 -37834-2 0  9998,2 55952  69.9996 285.8330 0003077 271.7657 142.7377 14.98343264 35224,6950.152,96.106,574.155,569.878,0.0
55952.0,STARLINK-5893,PAYLOAD,2023-10-26 16:00:00,14.98330292,0.0003071,69.9997,285.6229,269.5463,234.3308,-0.0019944,-0.0002381,0.0,0 STARLINK-5893,1 55952U 23037AQ  23299.66667824 -.00023810  00000-0 -19944-2 0  9996,2 55952  69.9997 285.6229 0003071 269.5463 234.3308 14.98330292  5871,6950.192,96.107,574.191,569.923,0.0
55952.0,STARLINK-5893,PAYLOAD,2023-10-29 04:14:43,14.98353845,0.0002107,70.0001,279.294,275.0441,85.0478,-0.00049951,-6.051e-05,0.0,0 STARLINK-5893,1 55952U 23037AQ  23302.17688778 -.00006051  00000-0 -49951-3 0  9998,2 55952  70.0001 279.2940 0002107 275.0441  85.0478 14.98353845 35619,6950.119,96.105,573.449,570.52,0.0
55952.0,STARLINK-5893,PAYLOAD,2023-10-29 07:26:58,14.98378047,0.0002042,70.0006,278.9574,277.1708,82.9219,-0.00084355,-0.00010155,0.0,0 STARLINK-5893,1 55952U 23037AQ  23302.31039975 -.00010155  00000-0 -84355-3 0  9990,2 55952  70.0006 278.9574 0002042 277.1708  82.9219 14.98378047 35632,6950.044,96.104,573.329,570.49,0.0
55952.0,STARLINK-5893,PAYLOAD,2023-10-29 15:27:39,14.98349792,0.0002688,70.0003,278.1153,273.9939,86.0912,-0.00039412,-4.795e-05,0.0,0 STARLINK-5893,1 55952U 23037AQ  23302.64420450 -.00004795  00000-0 -39412-3 0  9995,2 55952  70.0003 278.1153 0002688 273.9939  86.0912 14.98349792 35685,6950.132,96.106,573.865,570.128,0.0
55952.0,STARLINK-5893,PAYLOAD,2023-10-29 21:52:12,14.98317599,0.0002557,70.0003,277.4423,265.2179,94.8688,0.00017833,2.035e-05,0.0,0 STARLINK-5893,1 55952U 23037AQ  23302.91125313  .00002035  00000-0  17833-3 0  9991,2 55952  70.0003 277.4423 0002557 265.2179  94.8688 14.98317599 35386,6950.231,96.108,573.873,570.319,0.0
55952.0,STARLINK-5893,PAYLOAD,2023-10-30 04:16:45,14.98312059,0.0002069,70.0018,276.7701,250.6077,109.4858,0.00017192,1.958e-05,0.0,0 STARLINK-5893,1 55952U 23037AQ  23303.17829898  .00001958  00000-0  17192-3 0  9990,2 55952  70.0018 276.7701 0002069 250.6077 109.4858 14.98312059 35766,6950.248,96.108,573.551,570.675,0.0
55952.0,STARLINK-5893,PAYLOAD,2023-10-30 07:29:01,14.98312915,0.000214,70.0018,276.4332,248.5148,111.5783,0.00012624,1.413e-05,0.0,0 STARLINK-5893,1 55952U 23037AQ  23303.31182074  .00001413  00000-0  12624-3 0  9995,2 55952  70.0018 276.4332 0002140 248.5148 111.5783 14.98312915 35782,6950.246,96.108,573.598,570.623,0.0
55952.0,STARLINK-5893,PAYLOAD,2023-10-30 21:54:13,14.98322178,0.0002997,69.9998,274.9164,265.1102,94.9715,7.0359e-05,7.46e-06,0.0,0 STARLINK-5893,1 55952U 23037AQ  23303.91265710  .00000746  00000-0  70359-4 0  9998,2 55952  69.9998 274.9164 0002997 265.1102  94.9715 14.98322178 35531,6950.217,96.108,574.165,569.999,0.0
55952.0,STARLINK-5893,PAYLOAD,2023-10-31 04:18:44,14.98339378,0.0002793,69.9992,274.2428,262.7152,97.3689,0.00012134,1.355e-05,0.0,0 STARLINK-5893,1 55952U 23037AQ  23304.17968591  .00001355  00000-0  12134-3 0  9997,2 55952  69.9992 274.2428 0002793 262.7152  97.3689 14.98339378 35912,6950.164,96.106,573.97,570.088,0.0
55952.0,STARLINK-5893,PAYLOAD,2023-10-31 07:31:01,14.98335618,0.000225,69.9992,273.906,265.7592,94.331,6.9059e-05,7.31e-06,0.0,0 STARLINK-5893,1 55952U 23037AQ  23304.31321102  .00000731  00000-0  69059-4 0  9990,2 55952  69.9992 273.9060 0002250 265.7592  94.3310 14.98335618 35932,6950.176,96.107,573.604,570.477,0.0
55952.0,STARLINK-5893,PAYLOAD,2023-10-31 15:31:42,14.98328992,0.0002475,69.9993,273.0644,276.8079,83.2799,-3.5668e-05,-5.18e-06,0.0,0 STARLINK-5893,1 55952U 23037AQ  23304.64701767 -.00000518  00000-0 -35668-4 0  9999,2 55952  69.9993 273.0644 0002475 276.8079  83.2799 14.98328992 35984,6950.196,96.107,573.781,570.341,0.0
55952.0,STARLINK-5893,PAYLOAD,2023-10-31 21:56:14,14.9832906,0.0002712,69.9992,272.3913,269.9909,90.0939,9.7066e-06,2.3e-07,0.0,0 STARLINK-5893,1 55952U 23037AQ  23304.91405506  .00000023  00000-0  97066-5 0  9991,2 55952  69.9992 272.3913 0002712 269.9909  90.0939 14.98329060 35689,6950.196,96.107,573.946,570.176,0.0
55952.0,STARLINK-5893,PAYLOAD,2023-11-01 04:20:41,14.9839227,0.0002996,69.9997,271.718,261.7328,98.3491,0.00070642,8.359e-05,0.0,0 STARLINK-5893,1 55952U 23037AQ  23305.18103954  .00008359  00000-0  70642-3 0  9992,2 55952  69.9997 271.7180 0002996 261.7328  98.3491 14.98392270 36062,6950.0,96.103,573.948,569.783,0.0
55952.0,STARLINK-5893,PAYLOAD,2023-11-01 07:33:02,14.9833107,0.0002916,69.999,271.3822,268.7508,91.3317,5.847e-05,6.05e-06,0.0,0 STARLINK-5893,1 55952U 23037AQ  23305.31461217  .00000605  00000-0  58470-4 0  9998,2 55952  69.9990 271.3822 0002916 268.7508  91.3317 14.98331070 36086,6950.19,96.107,574.081,570.028,0.0
55952.0,STARLINK-5893,PAYLOAD,2023-11-01 20:22:06,14.98332452,0.0003054,69.9995,270.035,298.269,61.816,8.5572e-05,9.28e-06,0.0,0 STARLINK-5893,1 55952U 23037AQ  23305.84869185  .00000928  00000-0  85572-4 0  9993,2 55952  69.9995 270.0350 0003054 298.2690  61.8160 14.98332452 36169,6950.185,96.107,574.173,569.928,0.0
55952.0,STARLINK-5893,PAYLOAD,2023-11-01 21:58:15,14.98328498,0.0002889,69.9995,269.8667,275.2975,84.7855,-7.1355e-06,-1.78e-06,0.0,0 STARLINK-5893,1 55952U 23037AQ  23305.91545530 -.00000178  00000-0 -71355-5 0  9990,2 55952  69.9995 269.8667 0002889 275.2975  84.7855 14.98328498 35835,6950.198,96.107,574.07,570.055,0.0
55952.0,STARLINK-5893,PAYLOAD,2023-11-02 04:22:47,14.9833355,0.0003014,69.9989,269.1935,268.1511,91.9303,4.2665e-05,4.16e-06,0.0,0 STARLINK-5893,1 55952U 23037AQ  23306.18249039  .00000416  00000-0  42665-4 0  9999,2 55952  69.9989 269.1935 0003014 268.1511  91.9303 14.98333550 36213,6950.182,96.107,574.142,569.952,0.0
55952.0,STARLINK-5893,PAYLOAD,2023-11-02 07:35:03,14.98335102,0.0002859,69.9995,268.857,267.5216,92.5616,5.235e-05,5.32e-06,0.0,0 STARLINK-5893,1 55952U 23037AQ  23306.31600850  .00000532  00000-0  52350-4 0  9997,2 55952  69.9995 268.8570 0002859 267.5216  92.5616 14.98335102 36233,6950.177,96.107,574.029,570.055,0.0
55952.0,STARLINK-5893,PAYLOAD,2023-11-02 15:35:44,14.98297277,0.0002643,69.9996,268.0148,276.2479,83.8378,0.00063272,7.458e-05,0.0,0 STARLINK-5893,1 55952U 23037AQ  23306.64982141  .00007458  00000-0  63272-3 0  9997,2 55952  69.9996 268.0148 0002643 276.2479  83.8378 14.98297277 36289,6950.294,96.109,573.996,570.322,0.0
55952.0,STARLINK-5893,PAYLOAD,2023-11-02 22:00:16,14.98328033,0.0002878,69.9997,267.3417,269.4059,90.677,2.2702e-05,1.78e-06,0.0,0 STARLINK-5893,1 55952U 23037AQ  23306.91685350  .00000178  00000-0  22702-4 0  9995,2 55952  69.9997 267.3417 0002878 269.4059  90.6770 14.98328033 35982,6950.199,96.107,574.064,570.064,0.0
